[
  {
    "OBJECT_NAME": "ARIRANG-2 (KOMPSAT-2)",
    "OBJECT_ID": "2006-031A",
    "EPOCH": "2025-04-22T04:59:22.373376",
    "MEAN_MOTION": 14.64245421,
    "ECCENTRICITY": 0.0013871,
    "INCLINATION": 97.8408,
    "RA_OF_ASC_NODE": 311.9992,
    "ARG_OF_PERICENTER": 334.23,
    "MEAN_ANOMALY": 117.2768,
    "EPHEMERIS_TYPE": 0,
    "CLASSIFICATION_TYPE": "U",
    "NORAD_CAT_ID": 29268,
    "ELEMENT_SET_NO": 999,
    "REV_AT_EPOCH": 99995,
    "BSTAR": 0.00015484,
    "MEAN_MOTION_DOT": 0.00000772,
    "MEAN_MOTION_DDOT": 0
  },
  {
    "OBJECT_NAME": "LAPAN-TUBSAT",
    "OBJECT_ID": "2007-001A",
    "EPOCH": "2025-04-22T05:29:55.461696",
    "MEAN_MOTION": 14.85245575,
    "ECCENTRICITY": 0.0013674,
    "INCLINATION": 98.1076,
    "RA_OF_ASC_NODE": 97.876,
    "ARG_OF_PERICENTER": 113.2257,
    "MEAN_ANOMALY": 247.0398,
    "EPHEMERIS_TYPE": 0,
    "CLASSIFICATION_TYPE": "U",
    "NORAD_CAT_ID": 29709,
    "ELEMENT_SET_NO": 999,
    "REV_AT_EPOCH": 98866,
    "BSTAR": 0.00016617,
    "MEAN_MOTION_DOT": 0.00001371,
    "MEAN_MOTION_DDOT": 0
  },
  {
    "OBJECT_NAME": "HAIYANG-1B",
    "OBJECT_ID": "2007-010A",
    "EPOCH": "2025-04-21T22:10:46.233408",
    "MEAN_MOTION": 14.30874314,
    "ECCENTRICITY": 0.0013887,
    "INCLINATION": 98.3134,
    "RA_OF_ASC_NODE": 106.1565,
    "ARG_OF_PERICENTER": 16.0185,
    "MEAN_ANOMALY": 344.1435,
    "EPHEMERIS_TYPE": 0,
    "CLASSIFICATION_TYPE": "U",
    "NORAD_CAT_ID": 31113,
    "ELEMENT_SET_NO": 999,
    "REV_AT_EPOCH": 94038,
    "BSTAR": 0.00011614,
    "MEAN_MOTION_DOT": 0.00000264,
    "MEAN_MOTION_DDOT": 0
  },
  {
    "OBJECT_NAME": "COSMO-SKYMED 1",
    "OBJECT_ID": "2007-023A",
    "EPOCH": "2025-04-22T04:38:21.869952",
    "MEAN_MOTION": 14.83636868,
    "ECCENTRICITY": 0.0001474,
    "INCLINATION": 97.8877,
    "RA_OF_ASC_NODE": 296.9224,
    "ARG_OF_PERICENTER": 79.6202,
    "MEAN_ANOMALY": 280.5178,
    "EPHEMERIS_TYPE": 0,
    "CLASSIFICATION_TYPE": "U",
    "NORAD_CAT_ID": 31598,
    "ELEMENT_SET_NO": 999,
    "REV_AT_EPOCH": 96696,
    "BSTAR": 0.00015101,
    "MEAN_MOTION_DOT": 0.00001193,
    "MEAN_MOTION_DDOT": 0
  },
  {
    "OBJECT_NAME": "TERRASAR-X",
    "OBJECT_ID": "2007-026A",
    "EPOCH": "2025-04-21T10:29:30.530688",
    "MEAN_MOTION": 15.19150352,
    "ECCENTRICITY": 0.0001782,
    "INCLINATION": 97.4447,
    "RA_OF_ASC_NODE": 120.1677,
    "ARG_OF_PERICENTER": 83.0682,
    "MEAN_ANOMALY": 277.0755,
    "EPHEMERIS_TYPE": 0,
    "CLASSIFICATION_TYPE": "U",
    "NORAD_CAT_ID": 31698,
    "ELEMENT_SET_NO": 999,
    "REV_AT_EPOCH": 98919,
    "BSTAR": 0.0001165,
    "MEAN_MOTION_DOT": 0.0000238,
    "MEAN_MOTION_DDOT": 0
  },
  {
    "OBJECT_NAME": "WORLDVIEW-1 (WV-1)",
    "OBJECT_ID": "2007-041A",
    "EPOCH": "2025-04-21T19:03:14.728608",
    "MEAN_MOTION": 15.24289626,
    "ECCENTRICITY": 0.000351,
    "INCLINATION": 97.3856,
    "RA_OF_ASC_NODE": 232.7191,
    "ARG_OF_PERICENTER": 270.3192,
    "MEAN_ANOMALY": 89.7643,
    "EPHEMERIS_TYPE": 0,
    "CLASSIFICATION_TYPE": "U",
    "NORAD_CAT_ID": 32060,
    "ELEMENT_SET_NO": 999,
    "REV_AT_EPOCH": 97873,
    "BSTAR": 0.00058225,
    "MEAN_MOTION_DOT": 0.0001417,
    "MEAN_MOTION_DDOT": 0
  },
  {
    "OBJECT_NAME": "YAOGAN-3",
    "OBJECT_ID": "2007-055A",
    "EPOCH": "2025-04-22T04:08:07.622016",
    "MEAN_MOTION": 14.88513937,
    "ECCENTRICITY": 0.0001779,
    "INCLINATION": 97.8579,
    "RA_OF_ASC_NODE": 140.7886,
    "ARG_OF_PERICENTER": 84.9051,
    "MEAN_ANOMALY": 275.2368,
    "EPHEMERIS_TYPE": 0,
    "CLASSIFICATION_TYPE": "U",
    "NORAD_CAT_ID": 32289,
    "ELEMENT_SET_NO": 999,
    "REV_AT_EPOCH": 94324,
    "BSTAR": 0.00046799,
    "MEAN_MOTION_DOT": 0.00004296,
    "MEAN_MOTION_DDOT": 0
  },
  {
    "OBJECT_NAME": "COSMO-SKYMED 2",
    "OBJECT_ID": "2007-059A",
    "EPOCH": "2025-04-22T03:58:15.194496",
    "MEAN_MOTION": 14.82146086,
    "ECCENTRICITY": 0.0001286,
    "INCLINATION": 97.8876,
    "RA_OF_ASC_NODE": 296.8782,
    "ARG_OF_PERICENTER": 87.3257,
    "MEAN_ANOMALY": 272.8103,
    "EPHEMERIS_TYPE": 0,
    "CLASSIFICATION_TYPE": "U",
    "NORAD_CAT_ID": 32376,
    "ELEMENT_SET_NO": 999,
    "REV_AT_EPOCH": 93971,
    "BSTAR": 0.00014593,
    "MEAN_MOTION_DOT": 0.00001109,
    "MEAN_MOTION_DDOT": 0
  },
  {
    "OBJECT_NAME": "RADARSAT-2",
    "OBJECT_ID": "2007-061A",
    "EPOCH": "2025-04-22T03:54:49.172832",
    "MEAN_MOTION": 14.29984631,
    "ECCENTRICITY": 0.0001273,
    "INCLINATION": 98.5802,
    "RA_OF_ASC_NODE": 120.0999,
    "ARG_OF_PERICENTER": 88.0585,
    "MEAN_ANOMALY": 272.0743,
    "EPHEMERIS_TYPE": 0,
    "CLASSIFICATION_TYPE": "U",
    "NORAD_CAT_ID": 32382,
    "ELEMENT_SET_NO": 999,
    "REV_AT_EPOCH": 90589,
    "BSTAR": 0.000082569,
    "MEAN_MOTION_DOT": 0.00000169,
    "MEAN_MOTION_DDOT": 0
  },
  {
    "OBJECT_NAME": "CARTOSAT-2A",
    "OBJECT_ID": "2008-021A",
    "EPOCH": "2025-04-22T03:27:04.128192",
    "MEAN_MOTION": 14.78765231,
    "ECCENTRICITY": 0.0011828,
    "INCLINATION": 97.8197,
    "RA_OF_ASC_NODE": 168.8877,
    "ARG_OF_PERICENTER": 45.7404,
    "MEAN_ANOMALY": 314.4777,
    "EPHEMERIS_TYPE": 0,
    "CLASSIFICATION_TYPE": "U",
    "NORAD_CAT_ID": 32783,
    "ELEMENT_SET_NO": 999,
    "REV_AT_EPOCH": 91666,
    "BSTAR": 0.00021516,
    "MEAN_MOTION_DOT": 0.00001532,
    "MEAN_MOTION_DDOT": 0
  },
  {
    "OBJECT_NAME": "HUANJING 1A (HJ-1A)",
    "OBJECT_ID": "2008-041A",
    "EPOCH": "2025-04-22T05:12:35.540928",
    "MEAN_MOTION": 14.82500688,
    "ECCENTRICITY": 0.0021265,
    "INCLINATION": 97.6408,
    "RA_OF_ASC_NODE": 110.6584,
    "ARG_OF_PERICENTER": 81.3314,
    "MEAN_ANOMALY": 279.0308,
    "EPHEMERIS_TYPE": 0,
    "CLASSIFICATION_TYPE": "U",
    "NORAD_CAT_ID": 33320,
    "ELEMENT_SET_NO": 999,
    "REV_AT_EPOCH": 89610,
    "BSTAR": 0.00041729,
    "MEAN_MOTION_DOT": 0.00003314,
    "MEAN_MOTION_DDOT": 0
  },
  {
    "OBJECT_NAME": "HUANJING 1B (HJ-1B)",
    "OBJECT_ID": "2008-041B",
    "EPOCH": "2025-04-22T05:35:16.378080",
    "MEAN_MOTION": 14.82100226,
    "ECCENTRICITY": 0.0038613,
    "INCLINATION": 97.63,
    "RA_OF_ASC_NODE": 114.8981,
    "ARG_OF_PERICENTER": 123.1032,
    "MEAN_ANOMALY": 237.3898,
    "EPHEMERIS_TYPE": 0,
    "CLASSIFICATION_TYPE": "U",
    "NORAD_CAT_ID": 33321,
    "ELEMENT_SET_NO": 999,
    "REV_AT_EPOCH": 89612,
    "BSTAR": 0.00028494,
    "MEAN_MOTION_DOT": 0.00002244,
    "MEAN_MOTION_DDOT": 0
  },
  {
    "OBJECT_NAME": "GEOEYE 1",
    "OBJECT_ID": "2008-042A",
    "EPOCH": "2025-04-21T22:23:15.783648",
    "MEAN_MOTION": 14.64667191,
    "ECCENTRICITY": 0.0002874,
    "INCLINATION": 98.1133,
    "RA_OF_ASC_NODE": 186.2224,
    "ARG_OF_PERICENTER": 310.1841,
    "MEAN_ANOMALY": 49.911,
    "EPHEMERIS_TYPE": 0,
    "CLASSIFICATION_TYPE": "U",
    "NORAD_CAT_ID": 33331,
    "ELEMENT_SET_NO": 999,
    "REV_AT_EPOCH": 88848,
    "BSTAR": 0.00023435,
    "MEAN_MOTION_DOT": 0.00001199,
    "MEAN_MOTION_DDOT": 0
  },
  {
    "OBJECT_NAME": "THEOS",
    "OBJECT_ID": "2008-049A",
    "EPOCH": "2025-04-22T04:42:33.314688",
    "MEAN_MOTION": 14.20095448,
    "ECCENTRICITY": 0.0001255,
    "INCLINATION": 98.6129,
    "RA_OF_ASC_NODE": 176.7761,
    "ARG_OF_PERICENTER": 88.1084,
    "MEAN_ANOMALY": 272.0237,
    "EPHEMERIS_TYPE": 0,
    "CLASSIFICATION_TYPE": "U",
    "NORAD_CAT_ID": 33396,
    "ELEMENT_SET_NO": 999,
    "REV_AT_EPOCH": 85823,
    "BSTAR": 0.000086615,
    "MEAN_MOTION_DOT": 0.00000142,
    "MEAN_MOTION_DDOT": 0
  }
]