ARIRANG-2 (KOMPSAT-2)   
1 29268U 06031A   25112.20789784  .00000772  00000+0  15484-3 0  9993
2 29268  97.8408 311.9992 0013871 334.2300 117.2768 14.64245421999950
LAPAN-TUBSAT            
1 29709U 07001A   25112.22911414  .00001371  00000+0  16617-3 0  9995
2 29709  98.1076  97.8760 0013674 113.2257 247.0398 14.85245575988665
HAIYANG-1B              
1 31113U 07010A   25111.92414622  .00000264  00000+0  11614-3 0  9994
2 31113  98.3134 106.1565 0013887  16.0185 344.1435 14.30874314940384
COSMO-SKYMED 1          
1 31598U 07023A   25112.19330868  .00001193  00000+0  15101-3 0  9991
2 31598  97.8877 296.9224 0001474  79.6202 280.5178 14.83636868966960
TERRASAR-X              
1 31698U 07026A   25111.43715892  .00002380  00000+0  11650-3 0  9999
2 31698  97.4447 120.1677 0001782  83.0682 277.0755 15.19150352989194
WORLDVIEW-1 (WV-1)      
1 32060U 07041A   25111.79392047  .00014170  00000+0  58225-3 0  9991
2 32060  97.3856 232.7191 0003510 270.3192  89.7643 15.24289626978735
YAOGAN-3                
1 32289U 07055A   25112.17231044  .00004296  00000+0  46799-3 0  9992
2 32289  97.8579 140.7886 0001779  84.9051 275.2368 14.88513937943240
COSMO-SKYMED 2          
1 32376U 07059A   25112.16545364  .00001109  00000+0  14593-3 0  9992
2 32376  97.8876 296.8782 0001286  87.3257 272.8103 14.82146086939711
RADARSAT-2              
1 32382U 07061A   25112.16306913  .00000169  00000+0  82569-4 0  9991
2 32382  98.5802 120.0999 0001273  88.0585 272.0743 14.29984631905892
CARTOSAT-2A             
1 32783U 08021A   25112.14379778  .00001532  00000+0  21516-3 0  9999
2 32783  97.8197 168.8877 0011828  45.7404 314.4777 14.78765231916660
HUANJING 1A (HJ-1A)     
1 33320U 08041A   25112.21707802  .00003314  00000+0  41729-3 0  9998
2 33320  97.6408 110.6584 0021265  81.3314 279.0308 14.82500688896103
HUANJING 1B (HJ-1B)     
1 33321U 08041B   25112.23282845  .00002244  00000+0  28494-3 0  9991
2 33321  97.6300 114.8981 0038613 123.1032 237.3898 14.82100226896126
GEOEYE 1                
1 33331U 08042A   25111.93282157  .00001199  00000+0  23435-3 0  9993
2 33331  98.1133 186.2224 0002874 310.1841  49.9110 14.64667191888489
THEOS                   
1 33396U 08049A   25112.19621892  .00000142  00000+0  86615-4 0  9990
2 33396  98.6129 176.7761 0001255  88.1084 272.0237 14.20095448858234
